INTELSAT 10 (IS-10)     
1 26766U 01019A   25318.30194507  .00000011  00000+0  00000+0 0  9996
2 26766   8.5613  61.4395 0006815 211.4104 150.6321  0.99074062 43454
INTELSAT 902 (IS-902)   
1 26900U 01039A   25317.30168541 -.00000282  00000+0  00000+0 0  9997
2 26900   5.5706  74.4153 0004432 154.6594 242.1266  1.00272335 88533
INTELSAT 904 (IS-904)   
1 27380U 02007A   25318.17892166 -.00000221  00000+0  00000+0 0  9992
2 27380   6.3827  71.7601 0001201 143.3429 231.3710  1.00270820 49617
DIRECTV 5 (TEMPO 1)     
1 27426U 02023A   25318.29762756 -.00000053  00000+0  00000+0 0  9998
2 27426   4.3283  77.9899 0003142 158.9029 173.8031  1.00272439 85965
INTELSAT 905 (IS-905)   
1 27438U 02027A   25318.28790123  .00000099  00000+0  00000+0 0  9992
2 27438   6.2132  72.3846 0002653 167.7195 140.0144  1.00274094 49208
GALAXY 3C (G-3C)        
1 27445U 02030A   25318.32695112 -.00000148  00000+0  00000+0 0  9997
2 27445   3.1919  80.7954 0001354  83.3935 272.3585  1.00271340 44338
INTELSAT 906 (IS-906)   
1 27513U 02041A   25317.96646076  .00000016  00000+0  00000+0 0  9992
2 27513   5.2543  75.5702 0005648 183.7222 206.1122  1.00272353 84877
GALAXY 13 (HORIZONS-1)  
1 27954U 03044A   25318.28226392  .00000135  00000+0  00000+0 0  9998
2 27954   0.8600  86.8216 0002130 141.3409 137.1115  1.00272583 44412
INTELSAT 10-02          
1 28358U 04022A   25318.20947370 -.00000009  00000+0  00000+0 0  9993
2 28358   0.0356  79.7171 0000933 192.3111 215.9824  1.00271450 78407
XM-3 (RHYTHM)           
1 28626U 05008A   25318.33369978  .00000055  00000+0  00000+0 0  9992
2 28626   0.0987  77.5534 0000457 351.8595 353.5350  0.98950477 40460
DIRECTV 8               
1 28659U 05019A   25318.30167897  .00000003  00000+0  00000+0 0  9996
2 28659   0.0113 299.4495 0003004 304.1223 159.6484  1.00271977 74913
GALAXY 28 (G-28)        
1 28702U 05022A   25318.30592978 -.00000183  00000+0  00000+0 0  9991
2 28702   2.7438  81.6077 0002087 181.5946 171.9122  1.00270783 49818
GALAXY 16 (G-16)        
1 29236U 06023A   25318.30194464  .00000000  00000+0  00000+0 0  9991
2 29236   0.0215 132.5117 0002567 103.3149 187.5200  1.00269715 70813
DIRECTV 9S              
1 29494U 06043A   25318.27423698 -.00000110  00000+0  00000+0 0  9992
2 29494   1.8652  83.5177 0003103 155.4484 172.1986  1.00272316 49224
GALAXY 17 (G-17)        
1 31307U 07016B   25318.18328294 -.00000203  00000+0  00000+0 0  9998
2 31307   2.4265  82.6159 0006271 158.1084 153.8240  1.00271646 67642
DIRECTV 10              
1 31862U 07032A   25318.30056940 -.00000101  00000+0  00000+0 0  9999
2 31862   0.0019 289.7175 0000275  92.8678  36.4991  1.00268210 43431
INTELSAT 11 (IS-11)     
1 32253U 07044B   25318.23741852 -.00000201  00000+0  00000+0 0  9993
2 32253   3.0045  81.3014 0009109 151.5423 257.2754  0.99053256 66324
HORIZONS-2              
1 32388U 07063B   25318.31205616 -.00000250  00000+0  00000+0 0  9999
2 32388   2.0466  83.2755 0004536 173.1180 195.8405  1.00270279 65666
DIRECTV 11              
1 32729U 08013A   25318.21881769 -.00000124  00000+0  00000+0 0  9992
2 32729   0.0305 126.0586 0000139  47.4525 219.6547  1.00271792 43438
GALAXY 18 (G-18)        
1 32951U 08024A   25318.17891985  .00000026  00000+0  00000+0 0  9997
2 32951   0.0250  55.1384 0003115 183.6297 116.1821  1.00272357 43690
INTELSAT 25 (IS-25)     
1 33153U 08034A   25318.17892166 -.00000221  00000+0  00000+0 0  9993
2 33153   2.1528  82.9710 0005103 167.4755 196.0183  1.00270584 63549
GALAXY 19 (G-19)        
1 33376U 08045A   25318.30258904 -.00000137  00000+0  00000+0 0  9999
2 33376   0.0179  49.2801 0002819 178.1716 198.1511  1.00271902 62743
FM-5                    
1 35493U 09034A   25318.32460207 -.00000198  00000+0  00000+0 0  9990
2 35493   0.0160 276.5273 0000518 235.5927 292.2825  1.00271118 44483
INTELSAT 14 (IS-14)     
1 36097U 09064A   25318.23031181 -.00000272  00000+0  00000+0 0  9992
2 36097   0.0114 353.2483 0002459 236.2578 222.0098  1.00272688 58453
INTELSAT 15 (IS-15)     
1 36106U 09067A   25318.14836437 -.00000184  00000+0  00000+0 0  9995
2 36106   0.0118 286.4616 0002388 314.3036 311.3195  1.00273211 39071
DIRECTV 12              
1 36131U 09075A   25317.86211350 -.00000103  00000+0  00000+0 0  9992
2 36131   0.0371  73.2594 0000312 216.8085 330.8236  1.00272457 44396
INTELSAT 16 (IS-16)     
1 36397U 10006A   25317.36824579 -.00000246  00000+0  00000+0 0  9998
2 36397   0.0106 297.9205 0002187 297.4961 233.7036  1.00272583 57494
XM-5                    
1 37185U 10053A   25317.50286534 -.00000024  00000+0  00000+0 0  9999
2 37185   0.0550 271.3509 0000699 227.7720 339.5915  1.00272288 55324
INTELSAT 17 (IS-17)     
1 37238U 10065B   25318.10252911  .00000000  00000+0  00000+0 0  9993
2 37238   0.0090 264.4019 0002382 331.2553 280.7363  1.00271102 51095
INTELSAT 28 (IS-28)     
1 37392U 11016A   25318.17892166 -.00000222  00000+0  00000+0 0  9997
2 37392   1.2492  85.3815 0003947 156.3457 204.5491  1.00273007 51133
INTELSAT 18 (IS-18)     
1 37834U 11056A   25318.25878228  .00000055  00000+0  00000+0 0  9997
2 37834   0.0160 278.9643 0001794 325.0488  82.7622  1.00271260 51657
INTELSAT 22 (IS-22)     
1 38098U 12011A   25318.15392199 -.00000058  00000+0  00000+0 0  9993
2 38098   0.0178 296.5922 0001721 297.2026 307.2632  1.00272026  5031
INTELSAT 19 (IS-19)     
1 38356U 12030A   25318.20079091 -.00000055  00000+0  00000+0 0  9997
2 38356   0.0220  27.5862 0003248 209.6269  54.6478  1.00272034 48298
INTELSAT 20 (IS-20)     
1 38740U 12043A   25317.96741410 -.00000024  00000+0  00000+0 0  9997
2 38740   0.0083 270.1130 0002963 269.7837 290.2267  1.00272221 48592
INTELSAT 21 (IS-21)     
1 38749U 12045A   25318.33512480 -.00000283  00000+0  00000+0 0  9990
2 38749   0.0130 303.2583 0001779 282.8662 250.2226  1.00272999 48379
INTELSAT 23 (IS-23)     
1 38867U 12057A   25317.37249249 -.00000286  00000+0  00000+0 0  9990
2 38867   0.0182 266.9197 0001649 359.3359 227.5937  1.00268483 47796
FM-6                    
1 39360U 13058A   25317.93075390 -.00000017  00000+0  00000+0 0  9999
2 39360   0.0225 135.5239 0002685  39.3126  97.3884  1.00273857 43914
INTELSAT 30 (IS-30)     
1 40271U 14062A   25317.36408575 -.00000152  00000+0  00000+0 0  9990
2 40271   0.0257  34.7481 0001309  27.1919  26.8189  1.00270425  4626
DIRECTV 14              
1 40333U 14078B   25316.43579622 -.00000129  00000+0  00000+0 0  9999
2 40333   0.0183 278.9031 0000224 278.3330 272.2597  1.00272468 39872
DIRECTV 15              
1 40663U 15026A   25317.50529203 -.00000103  00000+0  00000+0 0  9990
2 40663   0.0506  90.6506 0000055 103.5070 297.7539  1.00268642 38309
SKY MEXICO-1            
1 40664U 15026B   25317.29605204 -.00000236  00000+0  00000+0 0  9990
2 40664   0.0144 283.4210 0002483 323.5402 193.5252  1.00270699 38289
INTELSAT 34 (IS-34)     
1 40874U 15039A   25318.21593275 -.00000284  00000+0  00000+0 0  9997
2 40874   0.0139 292.7534 0000095 233.5305 269.5430  1.00270191 37465
INTELSAT 31 (IS-31)     
1 41581U 16035A   25317.36417242 -.00000152  00000+0  00000+0 0  9998
2 41581   0.0126 259.0930 0001688 327.8484 221.8303  1.00269877 34519
INTELSAT 36 (IS-36)     
1 41747U 16053A   25318.10252911 -.00000025  00000+0  00000+0 0  9994
2 41747   0.0134 343.6638 0001702 345.1197 190.1022  1.00277395 33797
INTELSAT 32E (IS-32E)   
1 41945U 17007B   25318.23065848 -.00000267  00000+0  00000+0 0  9997
2 41945   0.0397  85.8653 0000155 312.6168  54.9778  1.00270055 32079
INTELSAT 35E (IS-35E)   
1 42818U 17041A   25318.23239182 -.00000236  00000+0  00000+0 0  9995
2 42818   0.0177 285.4639 0002266 310.8208 226.4873  1.00273115 30662
INTELSAT 37E (IS-37E)   
1 42950U 17059A   25318.17336397  .00000000  00000+0  00000+0 0  9998
2 42950   0.0135 292.6222 0002940 299.5593 225.7534  1.00270894 29913
AZERSPACE 2 (IS-38)     
1 43632U 18074A   25317.93951455  .00000137  00000+0  00000+0 0  9996
2 43632   0.0184 286.3689 0001260 332.4554 177.8187  1.00270392 26281
HORIZONS-3E             
1 43633U 18074B   25318.20131093 -.00000029  00000+0  00000+0 0  9997
2 43633   0.0171 189.5330 0000944  97.9477   7.5388  1.00269846 26183
AT&T T-16               
1 44333U 19034A   25318.00520098  .00000000  00000+0  00000+0 0  9995
2 44333   0.0137  68.2421 0000338  64.9110 181.2098  1.00272103 23479
INTELSAT 39 (IS-39)     
1 44476U 19049B   25317.84690970  .00000033  00000+0  00000+0 0  9993
2 44476   0.0183 279.9073 0000262 179.8021 320.3412  1.00272282 22962
GALAXY 30 (G-30)        
1 46114U 20056C   25318.31711262  .00000039  00000+0  00000+0 0  9991
2 46114   0.0182 282.3432 0002214 310.1356 170.3700  1.00271870 19139
GALAXY 33 (G-33)        
1 54026U 22128A   25318.32267050  .00000081  00000+0  00000+0 0  9993
2 54026   0.0154 287.0522 0001836 308.5284 161.2737  1.00271539 11583
GALAXY 34 (G-34)        
1 54027U 22128B   25318.31711262  .00000061  00000+0  00000+0 0  9990
2 54027   0.0150 310.6734 0001445 277.7832 170.4080  1.00270626 11758
GALAXY 31 (G-31)        
1 54243U 22153A   25318.17891985  .00000015  00000+0  00000+0 0  9992
2 54243   0.0123 244.7844 0001722   2.9098 109.2660  1.00271400  4978
GALAXY 32 (G-32)        
1 54244U 22153B   25318.07843473 -.00000173  00000+0  00000+0 0  9997
2 54244   0.0098 338.7711 0001904 318.5174  53.3976  1.00271887 10986
GALAXY 35 (G-35)        
1 54741U 22170A   25318.32169616 -.00000160  00000+0  00000+0 0  9992
2 54741   0.0128 251.2912 0002336 350.8913 194.2262  1.00272007 10735
GALAXY 36 (G-36)        
1 54742U 22170B   25318.19100727 -.00000184  00000+0  00000+0 0  9992
2 54742   0.0118 222.7762 0000668 336.2608 194.2866  1.00272209 10617
GALAXY 37 (G-37)        
1 57493U 23112A   25318.31711262  .00000050  00000+0  00000+0 0  9992
2 57493   0.0171 329.7262 0002226 272.2193 158.8988  1.00272065  8387
